CCSDS_OMM_VERS = 2.0
CREATION_DATE  = 
ORIGINATOR     = 

OBJECT_NAME    = SL-16 R/B
OBJECT_ID      = 1998-043G
CENTER_NAME    = EARTH
REF_FRAME      = TEME
TIME_SYSTEM    = UTC
MEAN_ELEMENT_THEORY = SGP/SGP4

EPOCH          = 2026-03-05T20:56:33.881568
MEAN_MOTION    = 14.26048600
ECCENTRICITY   = .00103904
INCLINATION    = 98.8250
RA_OF_ASC_NODE = 18.2092
ARG_OF_PERICENTER = 30.9002
MEAN_ANOMALY   = 329.2787

EPHEMERIS_TYPE = 0
CLASSIFICATION_TYPE = U
NORAD_CAT_ID   = 25400
ELEMENT_SET_NO = 999
REV_AT_EPOCH   = 43844
BSTAR          = .51436513E-4
MEAN_MOTION_DOT = .78E-6
MEAN_MOTION_DDOT = 0

CCSDS_OMM_VERS = 2.0
CREATION_DATE  = 
ORIGINATOR     = 

OBJECT_NAME    = SL-16 R/B
OBJECT_ID      = 1998-045B
CENTER_NAME    = EARTH
REF_FRAME      = TEME
TIME_SYSTEM    = UTC
MEAN_ELEMENT_THEORY = SGP/SGP4

EPOCH          = 2026-03-06T07:46:38.403840
MEAN_MOTION    = 14.16189110
ECCENTRICITY   = .00065427
INCLINATION    = 71.0115
RA_OF_ASC_NODE = 188.6511
ARG_OF_PERICENTER = 13.1999
MEAN_ANOMALY   = 346.9294

EPHEMERIS_TYPE = 0
CLASSIFICATION_TYPE = U
NORAD_CAT_ID   = 25407
ELEMENT_SET_NO = 999
REV_AT_EPOCH   = 42662
BSTAR          = -.13230234E-4
MEAN_MOTION_DOT = -.74E-6
MEAN_MOTION_DDOT = 0

CCSDS_OMM_VERS = 2.0
CREATION_DATE  = 
ORIGINATOR     = 

OBJECT_NAME    = ISS (ZARYA)
OBJECT_ID      = 1998-067A
CENTER_NAME    = EARTH
REF_FRAME      = TEME
TIME_SYSTEM    = UTC
MEAN_ELEMENT_THEORY = SGP/SGP4

EPOCH          = 2026-03-06T05:19:41.493792
MEAN_MOTION    = 15.48470661
ECCENTRICITY   = .00081363
INCLINATION    = 51.6317
RA_OF_ASC_NODE = 89.5003
ARG_OF_PERICENTER = 162.2758
MEAN_ANOMALY   = 197.8515

EPHEMERIS_TYPE = 0
CLASSIFICATION_TYPE = U
NORAD_CAT_ID   = 25544
ELEMENT_SET_NO = 999
REV_AT_EPOCH   = 55579
BSTAR          = .15844115E-3
MEAN_MOTION_DOT = .8136E-4
MEAN_MOTION_DDOT = 0

CCSDS_OMM_VERS = 2.0
CREATION_DATE  = 
ORIGINATOR     = 

OBJECT_NAME    = CZ-4B R/B
OBJECT_ID      = 1999-025C
CENTER_NAME    = EARTH
REF_FRAME      = TEME
TIME_SYSTEM    = UTC
MEAN_ELEMENT_THEORY = SGP/SGP4

EPOCH          = 2026-03-06T01:28:23.350368
MEAN_MOTION    = 14.18264511
ECCENTRICITY   = .00369519
INCLINATION    = 98.6633
RA_OF_ASC_NODE = 109.4287
ARG_OF_PERICENTER = 357.0932
MEAN_ANOMALY   = 32.9430

EPHEMERIS_TYPE = 0
CLASSIFICATION_TYPE = U
NORAD_CAT_ID   = 25732
ELEMENT_SET_NO = 999
REV_AT_EPOCH   = 38765
BSTAR          = .4851929E-4
MEAN_MOTION_DOT = .57E-6
MEAN_MOTION_DDOT = 0

CCSDS_OMM_VERS = 2.0
CREATION_DATE  = 
ORIGINATOR     = 

OBJECT_NAME    = OKEAN-O
OBJECT_ID      = 1999-039A
CENTER_NAME    = EARTH
REF_FRAME      = TEME
TIME_SYSTEM    = UTC
MEAN_ELEMENT_THEORY = SGP/SGP4

EPOCH          = 2026-03-06T03:17:26.450880
MEAN_MOTION    = 14.80328179
ECCENTRICITY   = .00013507
INCLINATION    = 97.9448
RA_OF_ASC_NODE = 125.0646
ARG_OF_PERICENTER = 70.0365
MEAN_ANOMALY   = 290.0993

EPHEMERIS_TYPE = 0
CLASSIFICATION_TYPE = U
NORAD_CAT_ID   = 25860
ELEMENT_SET_NO = 999
REV_AT_EPOCH   = 43386
BSTAR          = .11202183E-3
MEAN_MOTION_DOT = .802E-5
MEAN_MOTION_DDOT = 0

CCSDS_OMM_VERS = 2.0
CREATION_DATE  = 
ORIGINATOR     = 

OBJECT_NAME    = SL-16 R/B
OBJECT_ID      = 1999-039B
CENTER_NAME    = EARTH
REF_FRAME      = TEME
TIME_SYSTEM    = UTC
MEAN_ELEMENT_THEORY = SGP/SGP4

EPOCH          = 2026-03-06T02:53:15.824256
MEAN_MOTION    = 14.81725315
ECCENTRICITY   = .00134304
INCLINATION    = 97.9972
RA_OF_ASC_NODE = 124.2222
ARG_OF_PERICENTER = 268.9169
MEAN_ANOMALY   = 91.0505

EPHEMERIS_TYPE = 0
CLASSIFICATION_TYPE = U
NORAD_CAT_ID   = 25861
ELEMENT_SET_NO = 999
REV_AT_EPOCH   = 43633
BSTAR          = .94227767E-4
MEAN_MOTION_DOT = .689E-5
MEAN_MOTION_DDOT = 0

CCSDS_OMM_VERS = 2.0
CREATION_DATE  = 
ORIGINATOR     = 

OBJECT_NAME    = DELTA 2 R/B
OBJECT_ID      = 1999-041E
CENTER_NAME    = EARTH
REF_FRAME      = TEME
TIME_SYSTEM    = UTC
MEAN_ELEMENT_THEORY = SGP/SGP4

EPOCH          = 2026-03-06T01:02:57.250752
MEAN_MOTION    = 14.11825671
ECCENTRICITY   = .05023565
INCLINATION    = 51.7640
RA_OF_ASC_NODE = 315.8429
ARG_OF_PERICENTER = 337.6757
MEAN_ANOMALY   = 20.2978

EPHEMERIS_TYPE = 0
CLASSIFICATION_TYPE = U
NORAD_CAT_ID   = 25876
ELEMENT_SET_NO = 999
REV_AT_EPOCH   = 36251
BSTAR          = .24926631E-3
MEAN_MOTION_DOT = .1313E-4
MEAN_MOTION_DDOT = 0

CCSDS_OMM_VERS = 2.0
CREATION_DATE  = 
ORIGINATOR     = 

OBJECT_NAME    = HELIOS 1B
OBJECT_ID      = 1999-064A
CENTER_NAME    = EARTH
REF_FRAME      = TEME
TIME_SYSTEM    = UTC
MEAN_ELEMENT_THEORY = SGP/SGP4

EPOCH          = 2026-03-06T05:11:34.777536
MEAN_MOTION    = 14.87682252
ECCENTRICITY   = .00024943
INCLINATION    = 98.1699
RA_OF_ASC_NODE = 327.3579
ARG_OF_PERICENTER = 79.5565
MEAN_ANOMALY   = 280.5931

EPHEMERIS_TYPE = 0
CLASSIFICATION_TYPE = U
NORAD_CAT_ID   = 25977
ELEMENT_SET_NO = 999
REV_AT_EPOCH   = 68474
BSTAR          = .30732313E-3
MEAN_MOTION_DOT = .274E-4
MEAN_MOTION_DDOT = 0

CCSDS_OMM_VERS = 2.0
CREATION_DATE  = 
ORIGINATOR     = 

OBJECT_NAME    = TERRA
OBJECT_ID      = 1999-068A
CENTER_NAME    = EARTH
REF_FRAME      = TEME
TIME_SYSTEM    = UTC
MEAN_ELEMENT_THEORY = SGP/SGP4

EPOCH          = 2026-03-06T05:22:40.363392
MEAN_MOTION    = 14.61010573
ECCENTRICITY   = .00024965
INCLINATION    = 97.9600
RA_OF_ASC_NODE = 118.7911
ARG_OF_PERICENTER = 159.7278
MEAN_ANOMALY   = 270.0945

EPHEMERIS_TYPE = 0
CLASSIFICATION_TYPE = U
NORAD_CAT_ID   = 25994
ELEMENT_SET_NO = 999
REV_AT_EPOCH   = 39457
BSTAR          = .13705483E-3
MEAN_MOTION_DOT = .628E-5
MEAN_MOTION_DDOT = 0

CCSDS_OMM_VERS = 2.0
CREATION_DATE  = 
ORIGINATOR     = 

OBJECT_NAME    = SL-16 R/B
OBJECT_ID      = 2000-006B
CENTER_NAME    = EARTH
REF_FRAME      = TEME
TIME_SYSTEM    = UTC
MEAN_ELEMENT_THEORY = SGP/SGP4

EPOCH          = 2026-03-06T06:25:51.051072
MEAN_MOTION    = 14.15825510
ECCENTRICITY   = .00170342
INCLINATION    = 71.0011
RA_OF_ASC_NODE = 105.0327
ARG_OF_PERICENTER = 194.9728
MEAN_ANOMALY   = 165.0893

EPHEMERIS_TYPE = 0
CLASSIFICATION_TYPE = U
NORAD_CAT_ID   = 26070
ELEMENT_SET_NO = 999
REV_AT_EPOCH   = 34807
BSTAR          = .64813249E-4
MEAN_MOTION_DOT = .8E-6
MEAN_MOTION_DDOT = 0

CCSDS_OMM_VERS = 2.0
CREATION_DATE  = 
ORIGINATOR     = 

OBJECT_NAME    = TITAN 4B R/B
OBJECT_ID      = 2000-047B
CENTER_NAME    = EARTH
REF_FRAME      = TEME
TIME_SYSTEM    = UTC
MEAN_ELEMENT_THEORY = SGP/SGP4

EPOCH          = 2026-03-06T06:01:34.407552
MEAN_MOTION    = 15.09520809
ECCENTRICITY   = .00382722
INCLINATION    = 67.9893
RA_OF_ASC_NODE = 50.1787
ARG_OF_PERICENTER = 39.4556
MEAN_ANOMALY   = 320.9368

EPHEMERIS_TYPE = 0
CLASSIFICATION_TYPE = U
NORAD_CAT_ID   = 26474
ELEMENT_SET_NO = 999
REV_AT_EPOCH   = 39239
BSTAR          = .3402643E-3
MEAN_MOTION_DOT = .5431E-4
MEAN_MOTION_DDOT = 0

CCSDS_OMM_VERS = 2.0
CREATION_DATE  = 
ORIGINATOR     = 

OBJECT_NAME    = ENVISAT
OBJECT_ID      = 2002-009A
CENTER_NAME    = EARTH
REF_FRAME      = TEME
TIME_SYSTEM    = UTC
MEAN_ELEMENT_THEORY = SGP/SGP4

EPOCH          = 2026-03-06T07:05:29.432256
MEAN_MOTION    = 14.39035489
ECCENTRICITY   = .00013287
INCLINATION    = 98.3724
RA_OF_ASC_NODE = 18.9737
ARG_OF_PERICENTER = 84.3919
MEAN_ANOMALY   = 85.2665

EPHEMERIS_TYPE = 0
CLASSIFICATION_TYPE = U
NORAD_CAT_ID   = 27386
ELEMENT_SET_NO = 999
REV_AT_EPOCH   = 25868
BSTAR          = .76885248E-4
MEAN_MOTION_DOT = .195E-5
MEAN_MOTION_DDOT = 0

